[{"OBJECT_NAME":"HAWK-11C","OBJECT_ID":"2024-247E","EPOCH":"2026-03-09T12:17:35.407968","MEAN_MOTION":15.2884802,"ECCENTRICITY":0.00059001,"INCLINATION":45.0045,"RA_OF_ASC_NODE":114.8762,"ARG_OF_PERICENTER":329.704,"MEAN_ANOMALY":30.3502,"EPHEMERIS_TYPE":0,"CLASSIFICATION_TYPE":"U","NORAD_CAT_ID":62381,"ELEMENT_SET_NO":999,"REV_AT_EPOCH":6774,"BSTAR":0.00033290115,"MEAN_MOTION_DOT":9.223e-5,"MEAN_MOTION_DDOT":0},{"OBJECT_NAME":"STARLINK-35434","OBJECT_ID":"2025-245N","EPOCH":"2026-03-09T20:57:17.623296","MEAN_MOTION":15.30207836,"ECCENTRICITY":7.782e-5,"INCLINATION":53.1567,"RA_OF_ASC_NODE":283.1123,"ARG_OF_PERICENTER":94.0216,"MEAN_ANOMALY":266.0874,"EPHEMERIS_TYPE":0,"CLASSIFICATION_TYPE":"U","NORAD_CAT_ID":66246,"ELEMENT_SET_NO":999,"REV_AT_EPOCH":2107,"BSTAR":0.00082494665,"MEAN_MOTION_DOT":0.00024159,"MEAN_MOTION_DDOT":0}]
